NORAD_CAT_ID,OBJECT_NAME,OBJECT_TYPE,EPOCH,MEAN_MOTION,ECCENTRICITY,INCLINATION,RA_OF_ASC_NODE,ARG_OF_PERICENTER,MEAN_ANOMALY,BSTAR,MEAN_MOTION_DOT,MEAN_MOTION_DDOT,TLE_LINE0,TLE_LINE1,TLE_LINE2,SEMIMAJOR_AXIS,PERIOD,APOGEE,PERIGEE,DECAYED
49160.0,STARLINK-3095,PAYLOAD,2023-07-17 11:01:28,14.98333608,0.0004132,69.9985,210.6468,268.1117,91.9569,2.3338e-05,1.85e-06,0.0,0 STARLINK-3095,1 49160U 21082AG  23198.45935279  .00000185  00000-0  23338-4 0  9997,2 49160  69.9985 210.6468 0004132 268.1117  91.9569 14.98333608102323,6950.182,96.107,574.919,569.175,0.0
49160.0,STARLINK-3095,PAYLOAD,2023-07-18 11:03:28,14.9833221,0.0004084,69.9989,208.122,268.065,92.0041,5.0473e-05,5.09e-06,0.0,0 STARLINK-3095,1 49160U 21082AG  23199.46075191  .00000509  00000-0  50473-4 0  9997,2 49160  69.9989 208.1220 0004084 268.0650  92.0041 14.98332210102473,6950.186,96.107,574.89,569.213,0.0
49160.0,STARLINK-3095,PAYLOAD,2023-07-19 09:29:22,14.9832947,0.0004027,69.9993,205.7657,267.9986,92.0712,5.6177e-06,-2.6e-07,0.0,0 STARLINK-3095,1 49160U 21082AG  23200.39539473 -.00000026  00000-0  56177-5 0  9993,2 49160  69.9993 205.7657 0004027 267.9986  92.0712 14.98329470102617,6950.195,96.107,574.858,569.261,0.0
49160.0,STARLINK-3095,PAYLOAD,2023-07-20 23:56:35,14.98330411,0.0004065,69.9993,201.7264,267.2987,92.7707,4.9205e-05,4.94e-06,0.0,0 STARLINK-3095,1 49160U 21082AG  23201.99763301  .00000494  00000-0  49205-4 0  9990,2 49160  69.9993 201.7264 0004065 267.2987  92.7707 14.98330411102857,6950.192,96.107,574.882,569.231,0.0
49160.0,STARLINK-3095,PAYLOAD,2023-07-24 12:51:42,14.9833315,0.0003996,69.9991,192.8049,267.2624,92.8077,4.5656e-05,4.52e-06,0.0,0 STARLINK-3095,1 49160U 21082AG  23205.53590877  .00000452  00000-0  45656-4 0  9990,2 49160  69.9991 192.8049 0003996 267.2624  92.8077 14.98333150103378,6950.183,96.107,574.825,569.271,0.0
49160.0,STARLINK-3095,PAYLOAD,2023-07-25 11:17:35,14.98330295,0.0003932,69.9996,190.4485,267.5792,92.4917,3.3849e-05,3.11e-06,0.0,0 STARLINK-3095,1 49160U 21082AG  23206.47055148  .00000311  00000-0  33849-4 0  9996,2 49160  69.9996 190.4485 0003932 267.5792  92.4917 14.98330295103512,6950.192,96.107,574.79,569.324,0.0
49160.0,STARLINK-3095,PAYLOAD,2023-07-26 11:19:36,14.98336196,0.0003889,69.9993,187.9241,269.355,90.7164,-1.116e-05,-2.26e-06,0.0,0 STARLINK-3095,1 49160U 21082AG  23207.47194936 -.00000226  00000-0 -11160-4 0  9995,2 49160  69.9993 187.9241 0003889 269.3550  90.7164 14.98336196103660,6950.174,96.107,574.742,569.336,0.0
49160.0,STARLINK-3095,PAYLOAD,2023-07-26 22:32:32,14.98332059,0.0004166,69.9983,186.7451,261.6485,98.4202,9.2324e-05,1.009e-05,0.0,0 STARLINK-3095,1 49160U 21082AG  23207.93926634  .00001009  00000-0  92324-4 0  9993,2 49160  69.9983 186.7451 0004166 261.6485  98.4202 14.98332059103730,6950.187,96.107,574.947,569.156,0.0
49160.0,STARLINK-3095,PAYLOAD,2023-07-27 09:45:28,14.98339546,0.0004246,69.9985,185.5682,263.7374,96.3301,8.4519e-05,9.16e-06,0.0,0 STARLINK-3095,1 49160U 21082AG  23208.40658123  .00000916  00000-0  84519-4 0  9994,2 49160  69.9985 185.5682 0004246 263.7374  96.3301 14.98339546103807,6950.163,96.106,574.979,569.077,0.0
49160.0,STARLINK-3095,PAYLOAD,2023-07-28 00:10:42,14.98344333,0.0004519,69.9944,184.0486,273.287,86.7772,-0.00037851,-4.609e-05,0.0,0 STARLINK-3095,1 49160U 21082AG  23209.00743290 -.00004609  00000-0 -37851-3 0  9992,2 49160  69.9944 184.0486 0004519 273.2870  86.7772 14.98344333103904,6950.149,96.106,575.154,568.873,0.0
49160.0,STARLINK-3095,PAYLOAD,2023-07-28 08:11:22,14.98327223,0.0003953,69.9994,183.2118,268.1934,91.8772,-3.8831e-05,-5.56e-06,0.0,0 STARLINK-3095,1 49160U 21082AG  23209.34123402 -.00000556  00000-0 -38831-4 0  9993,2 49160  69.9994 183.2118 0003953 268.1934  91.8772 14.98327223103947,6950.201,96.107,574.814,569.319,0.0
49160.0,STARLINK-3095,PAYLOAD,2023-07-29 01:48:50,14.98334937,0.0003907,69.9994,181.3597,267.4143,92.6569,-1.3448e-05,-2.54e-06,0.0,0 STARLINK-3095,1 49160U 21082AG  23210.07558856 -.00000254  00000-0 -13448-4 0  9992,2 49160  69.9994 181.3597 0003907 267.4143  92.6569 14.98334937104067,6950.178,96.107,574.758,569.327,0.0
49160.0,STARLINK-3095,PAYLOAD,2023-07-30 01:50:51,14.98328434,0.0003806,69.9998,178.8349,267.3986,92.6737,0.00011338,1.26e-05,0.0,0 STARLINK-3095,1 49160U 21082AG  23211.07698843  .00001260  00000-0  11338-3 0  9995,2 49160  69.9998 178.8349 0003806 267.3986  92.6737 14.98328434104218,6950.198,96.107,574.708,569.417,0.0
49160.0,STARLINK-3095,PAYLOAD,2023-07-31 01:52:52,14.98330566,0.0003604,70.0004,176.3104,268.0266,92.048,-3.1372e-05,-4.67e-06,0.0,0 STARLINK-3095,1 49160U 21082AG  23212.07839078 -.00000467  00000-0 -31372-4 0  9994,2 49160  70.0004 176.3104 0003604 268.0266  92.0480 14.98330566104360,6950.191,96.107,574.561,569.551,0.0
49160.0,STARLINK-3095,PAYLOAD,2023-08-01 01:54:53,14.9832877,0.0003464,70.0006,173.7862,268.6144,91.4618,-1.4573e-05,-2.67e-06,0.0,0 STARLINK-3095,1 49160U 21082AG  23213.07979125 -.00000267  00000-0 -14573-4 0  9995,2 49160  70.0006 173.7862 0003464 268.6144  91.4618 14.98328770104516,6950.197,96.107,574.469,569.654,0.0
49160.0,STARLINK-3095,PAYLOAD,2023-08-02 06:45:18,14.98331883,0.0003531,70.0002,170.7564,268.8832,91.1922,7.4692e-05,7.98e-06,0.0,0 STARLINK-3095,1 49160U 21082AG  23214.28146715  .00000798  00000-0  74692-4 0  9995,2 49160  70.0002 170.7564 0003531 268.8832  91.1922 14.98331883104692,6950.187,96.107,574.506,569.598,0.0
49160.0,STARLINK-3095,PAYLOAD,2023-08-03 06:47:19,14.98332354,0.0003421,70.0004,168.2321,265.3861,94.6908,9.1273e-05,9.96e-06,0.0,0 STARLINK-3095,1 49160U 21082AG  23215.28286625  .00000996  00000-0  91273-4 0  9995,2 49160  70.0004 168.2321 0003421 265.3861  94.6908 14.98332354104842,6950.186,96.107,574.428,569.673,0.0
49160.0,STARLINK-3095,PAYLOAD,2023-08-04 02:00:57,14.98324806,0.0003351,70.0003,166.211,266.4794,93.5982,-3.121e-05,-4.65e-06,0.0,0 STARLINK-3095,1 49160U 21082AG  23216.08399482 -.00000465  00000-0 -31210-4 0  9998,2 49160  70.0003 166.2110 0003351 266.4794  93.5982 14.98324806104960,6950.209,96.107,574.403,569.745,0.0
49160.0,STARLINK-3095,PAYLOAD,2023-08-05 00:26:49,14.98334827,0.0003483,70.0001,163.8548,269.5411,90.5349,4.2502e-05,4.14e-06,0.0,0 STARLINK-3095,1 49160U 21082AG  23217.01862685  .00000414  00000-0  42502-4 0  9990,2 49160  70.0001 163.8548 0003483 269.5411  90.5349 14.98334827105107,6950.178,96.107,574.464,569.622,0.0
49160.0,STARLINK-3095,PAYLOAD,2023-08-05 06:51:20,14.98343071,0.0003417,70.0002,163.1813,269.4066,90.6702,0.00013872,1.563e-05,0.0,0 STARLINK-3095,1 49160U 21082AG  23217.28565815  .00001563  00000-0  13872-3 0  9997,2 49160  70.0002 163.1813 0003417 269.4066  90.6702 14.98343071105147,6950.152,96.106,574.392,569.643,0.0
49160.0,STARLINK-3095,PAYLOAD,2023-08-06 03:41:06,14.98332323,0.0003189,70.0007,160.9944,265.7708,94.3087,0.00015663,1.776e-05,0.0,0 STARLINK-3095,1 49160U 21082AG  23218.15354178  .00001776  00000-0  15663-3 0  9998,2 49160  70.0007 160.9944 0003189 265.7708  94.3087 14.98332323105279,6950.186,96.107,574.267,569.834,0.0
49160.0,STARLINK-3095,PAYLOAD,2023-08-06 13:17:54,14.98327197,0.000298,70.0013,159.9845,264.3524,95.7296,5.2566e-05,5.34e-06,0.0,0 STARLINK-3095,1 49160U 21082AG  23218.55410786  .00000534  00000-0  52566-4 0  9995,2 49160  70.0013 159.9845 0002980 264.3524  95.7296 14.98327197105330,6950.202,96.107,574.138,569.995,0.0
49160.0,STARLINK-3095,PAYLOAD,2023-08-07 02:07:00,14.98322568,0.0003025,70.0014,158.639,265.3504,94.731,-0.00011055,-1.412e-05,0.0,0 STARLINK-3095,1 49160U 21082AG  23219.08819493 -.00001412  00000-0 -11055-3 0  9997,2 49160  70.0014 158.6390 0003025 265.3504  94.7310 14.98322568105414,6950.216,96.107,574.183,569.978,0.0
49160.0,STARLINK-3095,PAYLOAD,2023-08-07 19:44:27,14.98335952,0.0003242,70.0009,156.788,265.4611,94.6178,2.3554e-05,1.88e-06,0.0,0 STARLINK-3095,1 49160U 21082AG  23219.82254353  .00000188  00000-0  23554-4 0  9992,2 49160  70.0009 156.7880 0003242 265.4611  94.6178 14.98335952105526,6950.174,96.107,574.293,569.786,0.0
49160.0,STARLINK-3095,PAYLOAD,2023-08-08 05:21:15,14.98344192,0.0003086,70.0008,155.7779,256.7968,103.2847,-9.3855e-06,-2.05e-06,0.0,0 STARLINK-3095,1 49160U 21082AG  23220.22309730 -.00000205  00000-0 -93855-5 0  9992,2 49160  70.0008 155.7779 0003086 256.7968 103.2847 14.98344192105587,6950.149,96.106,574.159,569.869,0.0
49160.0,STARLINK-3095,PAYLOAD,2023-08-08 13:21:56,14.98336837,0.0003258,70.0013,154.9328,278.9321,81.1469,-9.4734e-06,-2.06e-06,0.0,0 STARLINK-3095,1 49160U 21082AG  23220.55690180 -.00000206  00000-0 -94734-5 0  9998,2 49160  70.0013 154.9328 0003258 278.9321  81.1469 14.98336837105631,6950.172,96.107,574.301,569.772,0.0
49160.0,STARLINK-3095,PAYLOAD,2023-08-09 02:11:01,14.98324749,0.0003088,70.001,153.5874,264.7468,95.3339,0.00016056,1.823e-05,0.0,0 STARLINK-3095,1 49160U 21082AG  23221.09098550  .00001823  00000-0  16056-3 0  9994,2 49160  70.0010 153.5874 0003088 264.7468  95.3339 14.98324749105716,6950.209,96.107,574.22,569.928,0.0
49160.0,STARLINK-3095,PAYLOAD,2023-08-11 02:15:02,14.98332207,0.0003103,70.0035,148.5405,266.9944,93.086,4.1492e-05,4.02e-06,0.0,0 STARLINK-3095,1 49160U 21082AG  23223.09378252  .00000402  00000-0  41492-4 0  9991,2 49160  70.0035 148.5405 0003103 266.9944  93.0860 14.98332207106014,6950.186,96.107,574.208,569.894,0.0
49160.0,STARLINK-3095,PAYLOAD,2023-08-12 02:17:04,14.9832695,0.0002865,70.0012,146.0147,267.9961,92.087,-3.9936e-05,-5.69e-06,0.0,0 STARLINK-3095,1 49160U 21082AG  23224.09518849 -.00000569  00000-0 -39936-4 0  9996,2 49160  70.0012 146.0147 0002865 267.9961  92.0870 14.98326950106163,6950.202,96.107,574.059,570.076,0.0
49160.0,STARLINK-3095,PAYLOAD,2023-08-12 18:18:24,14.98331554,0.0002883,70.0012,144.3316,267.9911,92.0918,5.4048e-05,5.52e-06,0.0,0 STARLINK-3095,1 49160U 21082AG  23224.76278285  .00000552  00000-0  54048-4 0  9998,2 49160  70.0012 144.3316 0002883 267.9911  92.0918 14.98331554106267,6950.188,96.107,574.057,570.049,0.0
